{
    "links": {
      "next": "https://api.nasa.gov/neo/rest/v1/feed?start_date=2017-01-08&end_date=2017-01-08&detailed=true&api_key=N7LkblDsc5aen05FJqBQ8wU4qSdmsftwJagVK7UD",
      "prev": "https://api.nasa.gov/neo/rest/v1/feed?start_date=2017-01-06&end_date=2017-01-06&detailed=true&api_key=N7LkblDsc5aen05FJqBQ8wU4qSdmsftwJagVK7UD",
      "self": "https://api.nasa.gov/neo/rest/v1/feed?start_date=2017-01-07&end_date=2017-01-07&detailed=true&api_key=N7LkblDsc5aen05FJqBQ8wU4qSdmsftwJagVK7UD"
    },
    "element_count": 7,
    "near_earth_objects": {
      "2017-01-07": [
        {
          "links": {
            "self": "https://api.nasa.gov/neo/rest/v1/neo/3766326?api_key=N7LkblDsc5aen05FJqBQ8wU4qSdmsftwJagVK7UD"
          },
          "neo_reference_id": "3766326",
          "name": "(2017 AZ3)",
          "nasa_jpl_url": "http://ssd.jpl.nasa.gov/sbdb.cgi?sstr=3766326",
          "absolute_magnitude_h": 30,
          "estimated_diameter": {
            "kilometers": {
              "estimated_diameter_min": 0.002658,
              "estimated_diameter_max": 0.0059434687
            },
            "meters": {
              "estimated_diameter_min": 2.658,
              "estimated_diameter_max": 5.9434686842
            },
            "miles": {
              "estimated_diameter_min": 0.0016516041,
              "estimated_diameter_max": 0.0036930991
            },
            "feet": {
              "estimated_diameter_min": 8.72047272,
              "estimated_diameter_max": 19.4995697979
            }
          },
          "is_potentially_hazardous_asteroid": false,
          "close_approach_data": [
            {
              "close_approach_date": "2017-01-07",
              "epoch_date_close_approach": 1483776000000,
              "relative_velocity": {
                "kilometers_per_second": "5.8170148531",
                "kilometers_per_hour": "20941.2534709866",
                "miles_per_hour": "13012.0805247917"
              },
              "miss_distance": {
                "astronomical": "0.0033190185",
                "lunar": "1.291098237",
                "kilometers": "496518.09375",
                "miles": "308522.0625"
              },
              "orbiting_body": "Earth"
            }
          ],
          "orbital_data": {
            "orbit_id": "3",
            "orbit_determination_date": "2017-04-06 08:21:11",
            "orbit_uncertainty": "6",
            "minimum_orbit_intersection": ".00309054",
            "jupiter_tisserand_invariant": "4.971",
            "epoch_osculation": "2458000.5",
            "eccentricity": ".2705384368793147",
            "semi_major_axis": "1.296924896026384",
            "inclination": "4.034184273423596",
            "ascending_node_longitude": "285.3959327666454",
            "orbital_period": "539.4741849785022",
            "perihelion_distance": ".9460568619055384",
            "perihelion_argument": "217.0483515407444",
            "aphelion_distance": "1.64779293014723",
            "perihelion_time": "2457790.882296506868",
            "mean_anomaly": "139.8813425345546",
            "mean_motion": ".6673164537323427",
            "equinox": "J2000"
          }
        }
      ]
    }
  }